ONEWEB-0415             
1 51624U 22012C   25319.59045251 -.00000554  00000+0 -16234-2 0  9999
2 51624  87.8803  78.8480 0001692  92.5710 267.5611 13.10373997181316
ONEWEB-0416             
1 51625U 22012D   25319.75478756 -.00000582  00000+0 -17023-2 0  9996
2 51625  87.8809  78.8366 0001530 100.3690 259.7610 13.10376205181375
ONEWEB-0422             
1 51626U 22012E   25319.69488483  .00000086  00000+0  18783-3 0  9990
2 51626  87.9140  48.2988 0002450 110.3721 249.7674 13.17651534185690
ONEWEB-0423             
1 51627U 22012F   25319.68813713  .00000068  00000+0  14144-3 0  9995
2 51627  87.9136  48.3100 0001778 106.7899 253.3427 13.17651231185589
ONEWEB-0425             
1 51628U 22012G   25319.76474851 -.00000202  00000+0 -61393-3 0  9991
2 51628  87.8809  78.8034 0001259 108.6597 251.4667 13.10377468181378
ONEWEB-0428             
1 51629U 22012H   25319.59211380 -.00000584  00000+0 -17104-2 0  9992
2 51629  87.8796  78.8577 0001736 102.0943 258.0379 13.10374549181313
ONEWEB-0431             
1 51630U 22012J   25319.33304969  .00000727  00000+0  20458-2 0  9995
2 51630  87.8806  78.8870 0002087  88.5563 271.5803 13.10372713181334
ONEWEB-0434             
1 51631U 22012K   25319.76807720  .00000078  00000+0  18663-3 0  9991
2 51631  87.8807  78.8386 0001128 119.6744 240.4495 13.10377874181379
